{"fetched_at":"2026-07-05T12:47:20.985Z","source":"https://celestrak.org/NORAD/elements/gp.php?GROUP=planet&FORMAT=JSON","constellation":"tanager","records":[{"OBJECT_NAME":"TANAGER-1","OBJECT_ID":"2024-149AR","EPOCH":"2026-07-02T12:17:00.032352","CLASSIFICATION_TYPE":"U","MEAN_MOTION":15.44477537,"ECCENTRICITY":0.0002331,"INCLINATION":97.2319,"RA_OF_ASC_NODE":277.715,"ARG_OF_PERICENTER":253.4701,"MEAN_ANOMALY":106.6292,"EPHEMERIS_TYPE":0,"NORAD_CAT_ID":60507,"ELEMENT_SET_NO":999,"REV_AT_EPOCH":10540,"BSTAR":0.000011461,"MEAN_MOTION_DOT":0.00000446,"MEAN_MOTION_DDOT":0}]}
